#aV2013 10  1  0  0  0.00000000     288 DD+AD WGS84 FIT  NGA
## 1760 172800.00000000   300.00000000 56566 0.0000000000000
+   31     1  2  3  4  5  6  7  8  9 10 11 12 13 14 15 16 17
+         18 19 20 21 22 23 24 25 26 27 28 29 31 32  0  0  0
+          0  0  0  0  0  0  0  0  0  0  0  0  0  0  0  0  0
+          0  0  0  0  0  0  0  0  0  0  0  0  0  0  0  0  0
+          0  0  0  0  0  0  0  0  0  0  0  0  0  0  0  0  0
++         2  2  2  2  2  2  2  2  2  2  2  2  2  2  2  2  2
++         2  2  2  2  2  2  2  2  2  2  2  2  2  2  2  0  0
++         0  0  0  0  0  0  0  0  0  0  0  0  0  0  0  0  0
++         0  0  0  0  0  0  0  0  0  0  0  0  0  0  0  0  0
++         0  0  0  0  0  0  0  0  0  0  0  0  0  0  0  0  0
%c cc cc ccc ccc cccc cccc cccc cccc ccccc ccccc ccccc ccccc
%c cc cc ccc ccc cccc cccc cccc cccc ccccc ccccc ccccc ccccc
%f  0.0000000  0.000000000  0.00000000000  0.000000000000000
%f  0.0000000  0.000000000  0.00000000000  0.000000000000000
%i    0    0    0    0      0      0      0      0         0
%i    0    0    0    0      0      0      0      0         0
/*      NGA, ST. LOUIS,MO.                                  
/*   EPHEMERIS COMPUTED FROM  1 DAYS OF DATA
/*   EPOCHA SMOOTHER  
/* CCCCCCCCCCCCCCCCCCCCCCCCCCCCCCCCCCCCCCCCCCCCCCCCCCCCCCCCC
*  2013 10  1  0 55  0.00000000                                                 
P  1 -12230.117601  22210.083336  -7755.725537     80.360999                    
V  1  -8525.022045   5611.838307  29731.553324      0.039051                    
P  2  20550.717906  -9753.022621 -13054.048042    453.806228                    
V  2  -8555.313856  15257.697280 -24943.664631      0.017798                    
P  3 -13896.222757   6886.171913  21028.364018    266.619040                    
V  3 -12937.334167 -24905.059799   -199.708424      0.051338                    
P  4  17161.628219   2997.812431 -20411.687988      1.439573                    
V  4 -15743.379912  19795.523977 -10220.240638      0.005168                    
P  5  24239.271246  -3079.317990  10570.349020   -399.383179                    
V  5  12690.274579   5172.459692 -27362.443729      0.002782                    
P  6 -16738.609326   -925.070635  20732.631633     80.166386                    
V  6  -9442.492787 -24433.710387  -8357.017419      0.187022                    
P  7    831.838113  18351.852398  19119.262284    264.512566                    
V  7 -17276.795330  17032.265408 -15960.140473      0.042186                    
P  8  10271.766431  10191.794322  22409.680369      8.804701                    
V  8 -20871.876082  18708.032171    472.435495      0.002532                    
P  9  10632.442381   9820.547881  21740.282083    272.270118                    
V  9 -18990.085367  21695.523558   -625.008951      0.027142                    
P 10  24387.654248   9542.791094  -5932.006446    -96.423612                    
V 10  -7507.993815   1325.850577 -29896.244429     -0.013477                    
P 11 -12193.616302  23286.249711   2259.844471   -424.574426                    
V 11  -3421.516821  -5284.599345  30064.304296     -0.035371                    
P 12  10079.518538 -12194.280136 -21344.030199    159.443770                    
V 12  26131.961069   6672.911166   8745.214021      0.022114                    
P 13   4703.530822  25997.691338  -1944.796525     74.637084                    
V 13  -2785.953817  -1730.552016 -32140.227703     -0.037917                    
P 14 -14626.187023 -16696.161644 -14479.084225    214.495581                    
V 14  -3032.435743 -18520.928911  23914.409146     -0.009368                    
P 15   6538.890245 -18772.243647  17455.819305   -139.717001                    
V 15   9994.534756  20161.470868  18172.004747     -0.018807                    
P 16 -24336.964849   1365.377896  10921.120357   -245.552659                    
V 16 -12985.292874  -4802.479800 -27929.496510      0.008648                    
P 17  14771.123081  17730.061533 -13134.156640    -26.609708                    
V 17   2920.208975  16812.693778  25309.523555     -0.037206                    
P 18 -12451.202150 -15966.906309  17778.708498    276.926835                    
V 18  21702.017304   2246.419412  17297.116623      0.020417                    
P 19  -9990.246930  15156.400206  19120.223097   -408.079011                    
V 19  -7338.927416 -23597.991235  15198.352910     -0.027751                    
P 20  -4715.989188  15434.436404 -21267.450003    126.133811                    
V 20 -26432.513659  -4015.494001   3048.761555      0.026865                    
P 21  -5156.746436 -16976.132028  20215.015009   -321.338332                    
V 21  17235.563280 -17668.269420 -11264.633958     -0.018822                    
P 22 -22445.061796 -11290.670823   9037.080955    187.474171                    
V 22  11664.069186  -1219.976911  27924.694589      0.019167                    
P 23  -1104.625365  23473.502710 -11881.053875     43.343889                    
V 23  -7551.149743 -13716.840188 -26595.977460     -0.034464                    
P 24  14952.943135 -21588.368195  -3788.080332    -14.687672                    
V 24   5328.225524  -1776.816924  31251.265186     -0.006499                    
P 25  -4970.984460 -15498.990449 -21067.458533    152.904443                    
V 25  26208.448855   4305.593804  -9281.355960      0.039074                    
P 26  13893.288451  -4421.343568  21552.793048    216.138791                    
V 26   7006.125689  28025.434530   1504.025469      0.187796                    
P 27 -14924.196156   3289.499384  21712.052392    -42.760604                    
V 27  -8883.732691 -26128.269503  -2132.917432     -0.043311                    
P 28  19671.357318  13542.059997  12391.952996    296.928163                    
V 28 -14601.453033  -2264.785850  26780.859923      0.030287                    
P 29  -3698.190940 -25787.976911  -5233.852249    475.060654                    
V 29   4287.952977   5718.615141 -30935.313362      0.031438                    
P 31 -17391.946176   -864.943659 -19970.706362    326.986342                    
V 31  16712.398316 -19405.657549 -13322.219680      0.007648                    
P 32 -15338.486840   9813.271523 -19038.878232   -544.497118                    
V 32 -23186.233813  -8479.231903  14760.145163      0.032698                    
EOF
